GLOBALSTAR M045         
1 25676U 99019A   24154.85760174 -.00000043  00000+0  44395-3 0  9993
2 25676  51.9984 306.4175 0000977 142.8868  23.8977 12.27039188146828
GLOBALSTAR M019         
1 25677U 99019B   24154.92624698 -.00000149  00000+0 -61682-3 0  9998
2 25677  51.9898  49.9033 0000521 318.9373 171.0238 12.13858134139088
GLOBALSTAR M044         
1 25678U 99019C   24153.76716174 -.00000084  00000+0 -45860-8 0  9994
2 25678  51.9987 316.8953 0006431  32.8260  69.4985 11.90233245126021
GLOBALSTAR M042         
1 25679U 99019D   24154.90019345 -.00000102  00000+0 -96216-4 0  9996
2 25679  52.0038  41.6709 0002209 233.5183 256.1366 12.22062504138885
GLOBALSTAR M025         
1 25770U 99031A   24154.72381014 -.00000077  00000+0 -28240-3 0  9999
2 25770  51.9838 318.3212 0001263 200.5227 295.6308 11.22550566439098
GLOBALSTAR M049         
1 25771U 99031B   24154.86693292 -.00000041  00000+0  83523-3 0  9994
2 25771  51.9896 333.6903 0003489 100.1453 259.9737 11.12109706 75223
GLOBALSTAR M047         
1 25772U 99031C   24154.77863257 -.00000061  00000+0  23199-3 0  9990
2 25772  51.9863   7.1074 0016105 334.0559  25.9438 11.31920970428141
GLOBALSTAR M052         
1 25773U 99031D   24154.34384060 -.00000106  00000+0 -13579-2 0  9995
2 25773  51.9869  88.8904 0002525 274.5353 266.5743 11.15051331436135
